{
  "norad_id": 64090,
  "name": "2025-108D",
  "history": [
    {
      "epoch": "2026-04-30T13:02:06.951264Z",
      "apogee_km": 519.7932676316468,
      "perigee_km": 501.919773941966,
      "latitude_deg": 2.2730292410195013e-05,
      "longitude_deg": 142.72875825496115,
      "height_km": 522.5229236895505,
      "semi_major_axis_km": 6888.993520786807,
      "eccentricity": 0.00129725,
      "inclination_deg": 97.4704,
      "raan_deg": 196.7461,
      "arg_perigee_deg": 163.8607,
      "mean_anomaly_deg": 196.3043,
      "mean_motion_rev_day": 15.18340224
    },
    {
      "epoch": "2026-05-02T12:29:07.050336Z",
      "apogee_km": 519.8138103993015,
      "perigee_km": 501.73455189549713,
      "latitude_deg": -8.293693703605756e-05,
      "longitude_deg": 150.98235312933804,
      "height_km": 522.1951890819146,
      "semi_major_axis_km": 6888.911181147399,
      "eccentricity": 0.0013122,
      "inclination_deg": 97.4699,
      "raan_deg": 198.6988,
      "arg_perigee_deg": 157.345,
      "mean_anomaly_deg": 202.8365,
      "mean_motion_rev_day": 15.18367446
    },
    {
      "epoch": "2026-05-03T20:07:05.609568Z",
      "apogee_km": 519.81623277362,
      "perigee_km": 501.63514636331183,
      "latitude_deg": -6.138336844976814e-05,
      "longitude_deg": 36.49113152751435,
      "height_km": 521.919222324513,
      "semi_major_axis_km": 6888.862689568466,
      "eccentricity": 0.0013196,
      "inclination_deg": 97.4696,
      "raan_deg": 200.0007,
      "arg_perigee_deg": 153.2362,
      "mean_anomaly_deg": 206.9555,
      "mean_motion_rev_day": 15.18383478
    },
    {
      "epoch": "2026-05-04T19:50:33.760896Z",
      "apogee_km": 519.8209119972989,
      "perigee_km": 501.5586322244326,
      "latitude_deg": 1.5437100772030353e-05,
      "longitude_deg": 40.62579083093987,
      "height_km": 521.6807690250914,
      "semi_major_axis_km": 6888.826772110865,
      "eccentricity": 0.0013255,
      "inclination_deg": 97.4693,
      "raan_deg": 200.977,
      "arg_perigee_deg": 150.0998,
      "mean_anomaly_deg": 210.0996,
      "mean_motion_rev_day": 15.18395353
    },
    {
      "epoch": "2026-05-05T21:08:54.881664Z",
      "apogee_km": 519.8397330121234,
      "perigee_km": 501.4439380097747,
      "latitude_deg": -3.71154541541198e-05,
      "longitude_deg": 21.040115442671546,
      "height_km": 521.3923452732164,
      "semi_major_axis_km": 6888.778835510949,
      "eccentricity": 0.0013352,
      "inclination_deg": 97.4692,
      "raan_deg": 202.0186,
      "arg_perigee_deg": 146.5802,
      "mean_anomaly_deg": 213.6277,
      "mean_motion_rev_day": 15.18411202
    },
    {
      "epoch": "2026-05-06T20:52:21.508896Z",
      "apogee_km": 519.8686017758391,
      "perigee_km": 501.36128081036077,
      "latitude_deg": 7.348465367283184e-05,
      "longitude_deg": 25.181437795008385,
      "height_km": 521.1208889566315,
      "semi_major_axis_km": 6888.7519412931,
      "eccentricity": 0.0013433,
      "inclination_deg": 97.4691,
      "raan_deg": 202.9952,
      "arg_perigee_deg": 143.4544,
      "mean_anomaly_deg": 216.761,
      "mean_motion_rev_day": 15.18420094
    },
    {
      "epoch": "2026-05-07T19:00:53.976960Z",
      "apogee_km": 519.8775455777941,
      "perigee_km": 501.3096611095425,
      "latitude_deg": -5.7606843922960706e-05,
      "longitude_deg": 53.048213957202734,
      "height_km": 520.829351194403,
      "semi_major_axis_km": 6888.730603343668,
      "eccentricity": 0.0013477,
      "inclination_deg": 97.4691,
      "raan_deg": 203.9066,
      "arg_perigee_deg": 140.5178,
      "mean_anomaly_deg": 219.704,
      "mean_motion_rev_day": 15.18427149
    },
    {
      "epoch": "2026-05-08T20:19:13.450080Z",
      "apogee_km": 519.8997296813732,
      "perigee_km": 501.2327216804233,
      "latitude_deg": -1.1320793311741314e-05,
      "longitude_deg": 33.46941059039767,
      "height_km": 520.4792740834101,
      "semi_major_axis_km": 6888.703225680898,
      "eccentricity": 0.0013549,
      "inclination_deg": 97.4691,
      "raan_deg": 204.9482,
      "arg_perigee_deg": 137.1674,
      "mean_anomaly_deg": 223.0618,
      "mean_motion_rev_day": 15.18436201
    },
    {
      "epoch": "2026-05-09T20:02:38.775264Z",
      "apogee_km": 519.9322843349928,
      "perigee_km": 501.1592460632728,
      "latitude_deg": -3.749934337276746e-05,
      "longitude_deg": 37.61599252971635,
      "height_km": 520.1473301881766,
      "semi_major_axis_km": 6888.6827651991325,
      "eccentricity": 0.0013626,
      "inclination_deg": 97.4691,
      "raan_deg": 205.9246,
      "arg_perigee_deg": 134.1223,
      "mean_anomaly_deg": 226.1134,
      "mean_motion_rev_day": 15.18442966
    },
    {
      "epoch": "2026-05-10T19:46:03.671040Z",
      "apogee_km": 519.9445313278775,
      "perigee_km": 501.10266685723946,
      "latitude_deg": -2.5962190174419672e-05,
      "longitude_deg": 41.76436456831413,
      "height_km": 519.7825777453113,
      "semi_major_axis_km": 6888.660599092558,
      "eccentricity": 0.0013676,
      "inclination_deg": 97.4692,
      "raan_deg": 206.901,
      "arg_perigee_deg": 131.1058,
      "mean_anomaly_deg": 229.1359,
      "mean_motion_rev_day": 15.18450295
    },
    {
      "epoch": "2026-05-11T19:29:28.131360Z",
      "apogee_km": 519.9523592911246,
      "perigee_km": 501.0540637348604,
      "latitude_deg": 6.668286390789902e-06,
      "longitude_deg": 45.914654110374606,
      "height_km": 519.3843956845501,
      "semi_major_axis_km": 6888.640211512992,
      "eccentricity": 0.0013717,
      "inclination_deg": 97.4694,
      "raan_deg": 207.8775,
      "arg_perigee_deg": 128.0008,
      "mean_anomaly_deg": 232.2467,
      "mean_motion_rev_day": 15.18457036
    },
    {
      "epoch": "2026-05-12T20:47:45.832416Z",
      "apogee_km": 519.9475102214428,
      "perigee_km": 501.0134562070798,
      "latitude_deg": 2.9007869218582076e-05,
      "longitude_deg": 26.343161208263556,
      "height_km": 518.9337337253082,
      "semi_major_axis_km": 6888.6174832142615,
      "eccentricity": 0.0013743,
      "inclination_deg": 97.4695,
      "raan_deg": 208.919,
      "arg_perigee_deg": 124.7134,
      "mean_anomaly_deg": 235.5397,
      "mean_motion_rev_day": 15.18464551
    }
  ]
}